ONEWEB-0198             
1 48216U 21031G   24016.79307707 -.00000018  00000+0 -83735-4 0  9991
2 48216  87.8968 105.3672 0002031  92.6402 267.4960 13.14503470132561
ONEWEB-0189             
1 48217U 21031H   24016.80577284 -.00000154  00000+0 -45008-3 0  9994
2 48217  87.8975 105.3401 0002027  90.4193 269.7169 13.14503366132300
ONEWEB-0196             
1 48218U 21031J   24016.78357017  .00000100  00000+0  23526-3 0  9992
2 48218  87.8981 105.3450 0001867 104.6596 255.4741 13.14502317132301
ONEWEB-0183             
1 48219U 21031K   24017.13877221 -.00000104  00000+0 -31506-3 0  9990
2 48219  87.8966 105.2933 0001620 101.4417 258.6895 13.14502412132440
ONEWEB-0185             
1 48220U 21031L   24016.78436065  .00000087  00000+0  20108-3 0  9993
2 48220  87.8978 105.3367 0001573  98.6991 261.4317 13.14502645132324
ONEWEB-0187             
1 48221U 21031M   24016.75423174  .00000088  00000+0  20269-3 0  9997
2 48221  87.8978 105.3732 0001569  98.4590 261.6718 13.14503279132331
ONEWEB-0192             
1 48222U 21031N   24016.73440922 -.00000179  00000+0 -51726-3 0  9991
2 48222  87.8979 105.3741 0001857 100.4805 259.6534 13.14503770132245
ONEWEB-0219             
1 48223U 21031P   24016.78990144  .00000049  00000+0  97380-4 0  9994
2 48223  87.8980 105.3381 0001610  97.3568 262.7744 13.14501119132451
